{
  "type": "FeatureCollection",
  "features": [
    {
      "type": "Feature",
      "properties": {
        "village_id": "VIL-001",
        "name": "Mirik Basti Lower",
        "district": "Darjeeling",
        "census_code": "301001",
        "area_sq_km": 4.2
      },
      "geometry": {
        "type": "Polygon",
        "coordinates": [
          [
            [
              88.1804,
              26.8792
            ],
            [
              88.1964,
              26.8792
            ],
            [
              88.1964,
              26.8952
            ],
            [
              88.1804,
              26.8952
            ],
            [
              88.1804,
              26.8792
            ]
          ]
        ]
      }
    },
    {
      "type": "Feature",
      "properties": {
        "village_id": "VIL-002",
        "name": "Sukhiapokhri Valley",
        "district": "Darjeeling",
        "census_code": "301002",
        "area_sq_km": 4.2
      },
      "geometry": {
        "type": "Polygon",
        "coordinates": [
          [
            [
              88.1287,
              26.9881
            ],
            [
              88.1447,
              26.9881
            ],
            [
              88.1447,
              27.0041
            ],
            [
              88.1287,
              27.0041
            ],
            [
              88.1287,
              26.9881
            ]
          ]
        ]
      }
    },
    {
      "type": "Feature",
      "properties": {
        "village_id": "VIL-003",
        "name": "Teesta Bazaar Waterfront",
        "district": "Kalimpong",
        "census_code": "301003",
        "area_sq_km": 4.2
      },
      "geometry": {
        "type": "Polygon",
        "coordinates": [
          [
            [
              88.4205,
              27.0502
            ],
            [
              88.4365,
              27.0502
            ],
            [
              88.4365,
              27.0662
            ],
            [
              88.4205,
              27.0662
            ],
            [
              88.4205,
              27.0502
            ]
          ]
        ]
      }
    },
    {
      "type": "Feature",
      "properties": {
        "village_id": "VIL-004",
        "name": "Lebong Slope Settlement",
        "district": "Darjeeling",
        "census_code": "301004",
        "area_sq_km": 4.2
      },
      "geometry": {
        "type": "Polygon",
        "coordinates": [
          [
            [
              88.2641,
              27.0541
            ],
            [
              88.2801,
              27.0541
            ],
            [
              88.2801,
              27.0701
            ],
            [
              88.2641,
              27.0701
            ],
            [
              88.2641,
              27.0541
            ]
          ]
        ]
      }
    },
    {
      "type": "Feature",
      "properties": {
        "village_id": "VIL-005",
        "name": "Ghoom Station Ridge",
        "district": "Darjeeling",
        "census_code": "301005",
        "area_sq_km": 4.2
      },
      "geometry": {
        "type": "Polygon",
        "coordinates": [
          [
            [
              88.2495,
              27.0022
            ],
            [
              88.2655,
              27.0022
            ],
            [
              88.2655,
              27.0182
            ],
            [
              88.2495,
              27.0182
            ],
            [
              88.2495,
              27.0022
            ]
          ]
        ]
      }
    },
    {
      "type": "Feature",
      "properties": {
        "village_id": "VIL-006",
        "name": "Peshok Tea Garden Sector 3",
        "district": "Darjeeling",
        "census_code": "301006",
        "area_sq_km": 4.2
      },
      "geometry": {
        "type": "Polygon",
        "coordinates": [
          [
            [
              88.3868,
              27.0635
            ],
            [
              88.4028,
              27.0635
            ],
            [
              88.4028,
              27.0795
            ],
            [
              88.3868,
              27.0795
            ],
            [
              88.3868,
              27.0635
            ]
          ]
        ]
      }
    },
    {
      "type": "Feature",
      "properties": {
        "village_id": "VIL-007",
        "name": "Melli Bridge Settlement",
        "district": "Kalimpong",
        "census_code": "301007",
        "area_sq_km": 4.2
      },
      "geometry": {
        "type": "Polygon",
        "coordinates": [
          [
            [
              88.4332,
              27.0784
            ],
            [
              88.4492,
              27.0784
            ],
            [
              88.4492,
              27.0944
            ],
            [
              88.4332,
              27.0944
            ],
            [
              88.4332,
              27.0784
            ]
          ]
        ]
      }
    },
    {
      "type": "Feature",
      "properties": {
        "village_id": "VIL-008",
        "name": "Kurseong St. Marys Slope",
        "district": "Darjeeling",
        "census_code": "301008",
        "area_sq_km": 4.2
      },
      "geometry": {
        "type": "Polygon",
        "coordinates": [
          [
            [
              88.2705,
              26.8711
            ],
            [
              88.2865,
              26.8711
            ],
            [
              88.2865,
              26.8871
            ],
            [
              88.2705,
              26.8871
            ],
            [
              88.2705,
              26.8711
            ]
          ]
        ]
      }
    },
    {
      "type": "Feature",
      "properties": {
        "village_id": "VIL-009",
        "name": "Gorubathan Lower Block",
        "district": "Kalimpong",
        "census_code": "301009",
        "area_sq_km": 4.2
      },
      "geometry": {
        "type": "Polygon",
        "coordinates": [
          [
            [
              88.6932,
              26.9654
            ],
            [
              88.7092,
              26.9654
            ],
            [
              88.7092,
              26.9814
            ],
            [
              88.6932,
              26.9814
            ],
            [
              88.6932,
              26.9654
            ]
          ]
        ]
      }
    },
    {
      "type": "Feature",
      "properties": {
        "village_id": "VIL-010",
        "name": "Pedong North Ridge",
        "district": "Kalimpong",
        "census_code": "301010",
        "area_sq_km": 4.2
      },
      "geometry": {
        "type": "Polygon",
        "coordinates": [
          [
            [
              88.6109,
              27.1432
            ],
            [
              88.6269,
              27.1432
            ],
            [
              88.6269,
              27.1592
            ],
            [
              88.6109,
              27.1592
            ],
            [
              88.6109,
              27.1432
            ]
          ]
        ]
      }
    },
    {
      "type": "Feature",
      "properties": {
        "village_id": "VIL-011",
        "name": "Darjeeling Sector Village 11",
        "district": "Darjeeling",
        "census_code": "301011",
        "area_sq_km": 4.2
      },
      "geometry": {
        "type": "Polygon",
        "coordinates": [
          [
            [
              88.406,
              26.944
            ],
            [
              88.422,
              26.944
            ],
            [
              88.422,
              26.96
            ],
            [
              88.406,
              26.96
            ],
            [
              88.406,
              26.944
            ]
          ]
        ]
      }
    },
    {
      "type": "Feature",
      "properties": {
        "village_id": "VIL-012",
        "name": "Kalimpong Sector Village 12",
        "district": "Kalimpong",
        "census_code": "301012",
        "area_sq_km": 4.2
      },
      "geometry": {
        "type": "Polygon",
        "coordinates": [
          [
            [
              88.43,
              26.956
            ],
            [
              88.446,
              26.956
            ],
            [
              88.446,
              26.972
            ],
            [
              88.43,
              26.972
            ],
            [
              88.43,
              26.956
            ]
          ]
        ]
      }
    },
    {
      "type": "Feature",
      "properties": {
        "village_id": "VIL-013",
        "name": "Darjeeling Sector Village 13",
        "district": "Darjeeling",
        "census_code": "301013",
        "area_sq_km": 4.2
      },
      "geometry": {
        "type": "Polygon",
        "coordinates": [
          [
            [
              88.454,
              26.968
            ],
            [
              88.47,
              26.968
            ],
            [
              88.47,
              26.984
            ],
            [
              88.454,
              26.984
            ],
            [
              88.454,
              26.968
            ]
          ]
        ]
      }
    },
    {
      "type": "Feature",
      "properties": {
        "village_id": "VIL-014",
        "name": "Kalimpong Sector Village 14",
        "district": "Kalimpong",
        "census_code": "301014",
        "area_sq_km": 4.2
      },
      "geometry": {
        "type": "Polygon",
        "coordinates": [
          [
            [
              88.478,
              26.98
            ],
            [
              88.494,
              26.98
            ],
            [
              88.494,
              26.996
            ],
            [
              88.478,
              26.996
            ],
            [
              88.478,
              26.98
            ]
          ]
        ]
      }
    },
    {
      "type": "Feature",
      "properties": {
        "village_id": "VIL-015",
        "name": "Darjeeling Sector Village 15",
        "district": "Darjeeling",
        "census_code": "301015",
        "area_sq_km": 4.2
      },
      "geometry": {
        "type": "Polygon",
        "coordinates": [
          [
            [
              88.502,
              26.992
            ],
            [
              88.518,
              26.992
            ],
            [
              88.518,
              27.008
            ],
            [
              88.502,
              27.008
            ],
            [
              88.502,
              26.992
            ]
          ]
        ]
      }
    },
    {
      "type": "Feature",
      "properties": {
        "village_id": "VIL-016",
        "name": "Kalimpong Sector Village 16",
        "district": "Kalimpong",
        "census_code": "301016",
        "area_sq_km": 4.2
      },
      "geometry": {
        "type": "Polygon",
        "coordinates": [
          [
            [
              88.526,
              27.004
            ],
            [
              88.542,
              27.004
            ],
            [
              88.542,
              27.02
            ],
            [
              88.526,
              27.02
            ],
            [
              88.526,
              27.004
            ]
          ]
        ]
      }
    },
    {
      "type": "Feature",
      "properties": {
        "village_id": "VIL-017",
        "name": "Darjeeling Sector Village 17",
        "district": "Darjeeling",
        "census_code": "301017",
        "area_sq_km": 4.2
      },
      "geometry": {
        "type": "Polygon",
        "coordinates": [
          [
            [
              88.55,
              27.016
            ],
            [
              88.566,
              27.016
            ],
            [
              88.566,
              27.032
            ],
            [
              88.55,
              27.032
            ],
            [
              88.55,
              27.016
            ]
          ]
        ]
      }
    },
    {
      "type": "Feature",
      "properties": {
        "village_id": "VIL-018",
        "name": "Kalimpong Sector Village 18",
        "district": "Kalimpong",
        "census_code": "301018",
        "area_sq_km": 4.2
      },
      "geometry": {
        "type": "Polygon",
        "coordinates": [
          [
            [
              88.574,
              27.028
            ],
            [
              88.59,
              27.028
            ],
            [
              88.59,
              27.044
            ],
            [
              88.574,
              27.044
            ],
            [
              88.574,
              27.028
            ]
          ]
        ]
      }
    },
    {
      "type": "Feature",
      "properties": {
        "village_id": "VIL-019",
        "name": "Darjeeling Sector Village 19",
        "district": "Darjeeling",
        "census_code": "301019",
        "area_sq_km": 4.2
      },
      "geometry": {
        "type": "Polygon",
        "coordinates": [
          [
            [
              88.598,
              27.04
            ],
            [
              88.614,
              27.04
            ],
            [
              88.614,
              27.056
            ],
            [
              88.598,
              27.056
            ],
            [
              88.598,
              27.04
            ]
          ]
        ]
      }
    },
    {
      "type": "Feature",
      "properties": {
        "village_id": "VIL-020",
        "name": "Kalimpong Sector Village 20",
        "district": "Kalimpong",
        "census_code": "301020",
        "area_sq_km": 4.2
      },
      "geometry": {
        "type": "Polygon",
        "coordinates": [
          [
            [
              88.622,
              27.052
            ],
            [
              88.638,
              27.052
            ],
            [
              88.638,
              27.068
            ],
            [
              88.622,
              27.068
            ],
            [
              88.622,
              27.052
            ]
          ]
        ]
      }
    },
    {
      "type": "Feature",
      "properties": {
        "village_id": "VIL-021",
        "name": "Darjeeling Sector Village 21",
        "district": "Darjeeling",
        "census_code": "301021",
        "area_sq_km": 4.2
      },
      "geometry": {
        "type": "Polygon",
        "coordinates": [
          [
            [
              88.646,
              27.064
            ],
            [
              88.662,
              27.064
            ],
            [
              88.662,
              27.08
            ],
            [
              88.646,
              27.08
            ],
            [
              88.646,
              27.064
            ]
          ]
        ]
      }
    },
    {
      "type": "Feature",
      "properties": {
        "village_id": "VIL-022",
        "name": "Kalimpong Sector Village 22",
        "district": "Kalimpong",
        "census_code": "301022",
        "area_sq_km": 4.2
      },
      "geometry": {
        "type": "Polygon",
        "coordinates": [
          [
            [
              88.67,
              27.076
            ],
            [
              88.686,
              27.076
            ],
            [
              88.686,
              27.092
            ],
            [
              88.67,
              27.092
            ],
            [
              88.67,
              27.076
            ]
          ]
        ]
      }
    },
    {
      "type": "Feature",
      "properties": {
        "village_id": "VIL-023",
        "name": "Darjeeling Sector Village 23",
        "district": "Darjeeling",
        "census_code": "301023",
        "area_sq_km": 4.2
      },
      "geometry": {
        "type": "Polygon",
        "coordinates": [
          [
            [
              88.694,
              27.088
            ],
            [
              88.71,
              27.088
            ],
            [
              88.71,
              27.104
            ],
            [
              88.694,
              27.104
            ],
            [
              88.694,
              27.088
            ]
          ]
        ]
      }
    },
    {
      "type": "Feature",
      "properties": {
        "village_id": "VIL-024",
        "name": "Kalimpong Sector Village 24",
        "district": "Kalimpong",
        "census_code": "301024",
        "area_sq_km": 4.2
      },
      "geometry": {
        "type": "Polygon",
        "coordinates": [
          [
            [
              88.718,
              27.1
            ],
            [
              88.734,
              27.1
            ],
            [
              88.734,
              27.116
            ],
            [
              88.718,
              27.116
            ],
            [
              88.718,
              27.1
            ]
          ]
        ]
      }
    },
    {
      "type": "Feature",
      "properties": {
        "village_id": "VIL-025",
        "name": "Darjeeling Sector Village 25",
        "district": "Darjeeling",
        "census_code": "301025",
        "area_sq_km": 4.2
      },
      "geometry": {
        "type": "Polygon",
        "coordinates": [
          [
            [
              88.742,
              27.112
            ],
            [
              88.758,
              27.112
            ],
            [
              88.758,
              27.128
            ],
            [
              88.742,
              27.128
            ],
            [
              88.742,
              27.112
            ]
          ]
        ]
      }
    },
    {
      "type": "Feature",
      "properties": {
        "village_id": "VIL-026",
        "name": "Kalimpong Sector Village 26",
        "district": "Kalimpong",
        "census_code": "301026",
        "area_sq_km": 4.2
      },
      "geometry": {
        "type": "Polygon",
        "coordinates": [
          [
            [
              88.766,
              27.124
            ],
            [
              88.782,
              27.124
            ],
            [
              88.782,
              27.14
            ],
            [
              88.766,
              27.14
            ],
            [
              88.766,
              27.124
            ]
          ]
        ]
      }
    },
    {
      "type": "Feature",
      "properties": {
        "village_id": "VIL-027",
        "name": "Darjeeling Sector Village 27",
        "district": "Darjeeling",
        "census_code": "301027",
        "area_sq_km": 4.2
      },
      "geometry": {
        "type": "Polygon",
        "coordinates": [
          [
            [
              88.79,
              27.136
            ],
            [
              88.806,
              27.136
            ],
            [
              88.806,
              27.152
            ],
            [
              88.79,
              27.152
            ],
            [
              88.79,
              27.136
            ]
          ]
        ]
      }
    },
    {
      "type": "Feature",
      "properties": {
        "village_id": "VIL-028",
        "name": "Kalimpong Sector Village 28",
        "district": "Kalimpong",
        "census_code": "301028",
        "area_sq_km": 4.2
      },
      "geometry": {
        "type": "Polygon",
        "coordinates": [
          [
            [
              88.164,
              27.148
            ],
            [
              88.18,
              27.148
            ],
            [
              88.18,
              27.164
            ],
            [
              88.164,
              27.164
            ],
            [
              88.164,
              27.148
            ]
          ]
        ]
      }
    },
    {
      "type": "Feature",
      "properties": {
        "village_id": "VIL-029",
        "name": "Darjeeling Sector Village 29",
        "district": "Darjeeling",
        "census_code": "301029",
        "area_sq_km": 4.2
      },
      "geometry": {
        "type": "Polygon",
        "coordinates": [
          [
            [
              88.188,
              27.16
            ],
            [
              88.204,
              27.16
            ],
            [
              88.204,
              27.176
            ],
            [
              88.188,
              27.176
            ],
            [
              88.188,
              27.16
            ]
          ]
        ]
      }
    },
    {
      "type": "Feature",
      "properties": {
        "village_id": "VIL-030",
        "name": "Kalimpong Sector Village 30",
        "district": "Kalimpong",
        "census_code": "301030",
        "area_sq_km": 4.2
      },
      "geometry": {
        "type": "Polygon",
        "coordinates": [
          [
            [
              88.212,
              26.822
            ],
            [
              88.228,
              26.822
            ],
            [
              88.228,
              26.838
            ],
            [
              88.212,
              26.838
            ],
            [
              88.212,
              26.822
            ]
          ]
        ]
      }
    }
  ]
}